IRIDIUM 26              
1 24903U 97043A   25078.71330903  .00001101  00000+0  36468-3 0  9991
2 24903  86.3998 148.2040 0002347  89.6588 270.4878 14.37036290443891
IRIDIUM 22              
1 24907U 97043E   25078.70896545  .00000961  00000+0  32517-3 0  9997
2 24907  86.4008 151.6635 0002207  94.6235 265.5214 14.35862204443930
DUMMY MASS 1            
1 24925U 97048A   25078.77804761  .00001418  00000+0  15568-3 0  9993
2 24925  86.3418 176.6396 0008975 100.5297 259.6939 14.86870163491848
DUMMY MASS 2            
1 24926U 97048B   25078.79264001  .00001431  00000+0  15816-3 0  9994
2 24926  86.3418 178.2213 0009663 109.5183 250.7086 14.86623213491626
IRIDIUM 29              
1 24944U 97051A   25078.76320048  .00001323  00000+0  44583-3 0  9992
2 24944  86.4036 181.3699 0002064 100.8378 259.3052 14.36352011440435
IRIDIUM 33              
1 24946U 97051C   25078.78726624  .00000952  00000+0  32878-3 0  9997
2 24946  86.3951 180.6135 0008308  25.2629 334.8972 14.34813840439927
IRIDIUM 28              
1 24948U 97051E   25078.79446889  .00001291  00000+0  42677-3 0  9997
2 24948  86.4041 178.9268 0002300  84.3985 275.7475 14.37282745441004
IRIDIUM 36              
1 24967U 97056C   25078.91051983  .00001491  00000+0  49195-3 0  9998
2 24967  86.4009 210.4540 0001879  89.4147 270.7266 14.37486971439399
